[
    {
        "Altitude(m)": 605459.0662557124,
        "Argument of Periapsis(deg)": 0.0,
        "Eccentricity": 0.0,
        "Inclination(deg)": 60.0,
        "Latitude(deg)": 27.988335624210517,
        "Longitude(deg)": 82.79856910139912,
        "Mean Anomaly(deg)": 32.727299999999985,
        "RAAN(deg)": 165.0,
        "Satellite Name": "Test1 728",
        "Satellite Number": 728,
        "Semi-Major Axis(m)": 6980739.136638005,
        "Time(s)": 0
    },
    {
        "Altitude(m)": 605535.8577798387,
        "Argument of Periapsis(deg)": 0.00010418945913296404,
        "Eccentricity": 0.0,
        "Inclination(deg)": 60.0,
        "Latitude(deg)": 28.50146530525932,
        "Longitude(deg)": 83.15551424637009,
        "Mean Anomaly(deg)": 33.34740614546184,
        "RAAN(deg)": 164.99957995086024,
        "Satellite Name": "Test1 728",
        "Satellite Number": 728,
        "Semi-Major Axis(m)": 6980739.136638005,
        "Time(s)": 10
    }
]